{"type": "FeatureCollection", "features": [ {"type": "Feature", "properties": {"norad_id": 30332, "name": "FENGYUN 1C DEB", "group": "fengyun-1c-debris", "lat": -67.72349232282681, "lon": -19.960614048746645, "alt_km": 1113.7278059800237, "timestamp": "2025-12-09T20:37:09.562709+00:00", "meta": {"OBJECT_NAME": "FENGYUN 1C DEB", "OBJECT_ID": "1999-025AAT", "EPOCH": "2025-12-09T12:49:44.629248", "MEAN_MOTION": 13.76705321, "ECCENTRICITY": 0.01780336, "INCLINATION": 99.7147, "RA_OF_ASC_NODE": 314.9892, "ARG_OF_PERICENTER": 111.2755, "MEAN_ANOMALY": 11.0093, "EPHEMERIS_TYPE": 0, "CLASSIFICATION_TYPE": "U", "NORAD_CAT_ID": 30332, "ELEMENT_SET_NO": 999, "REV_AT_EPOCH": 94671, "BSTAR": 0.00057361718, "MEAN_MOTION_DOT": 5.88e-06, "MEAN_MOTION_DDOT": 0}, "tle": {"line1": "1 30332U 99025AAT 25343.53454432  .00000588  00000+0  57362-3 0  9999", "line2": "2 30332  99.7147 314.9892 0178033 111.2755  11.0093 13.76705321946716"}}, "geometry": {"type": "Point", "coordinates": [-19.960614048746645, -67.72349232282681]}}, {"type": "Feature", "properties": {"norad_id": 30334, "name": "FENGYUN 1C DEB", "group": "fengyun-1c-debris", "lat": 76.28060988286501, "lon": 42.91752745648538, "alt_km": 911.162683046573, "timestamp": "2025-12-09T20:37:09.562718+00:00", "meta": {"OBJECT_NAME": "FENGYUN 1C DEB", "OBJECT_ID": "1999-025AAV", "EPOCH": "2025-12-09T06:44:10.592160", "MEAN_MOTION": 13.92359656, "ECCENTRICITY": 0.0144655, "INCLINATION": 99.0213, "RA_OF_ASC_NODE": 82.9509, "ARG_OF_PERICENTER": 351.4535, "MEAN_ANOMALY": 68.5785, "EPHEMERIS_TYPE": 0, "CLASSIFICATION_TYPE": "U", "NORAD_CAT_ID": 30334, "ELEMENT_SET_NO": 999, "REV_AT_EPOCH": 95173, "BSTAR": 0.0018043, "MEAN_MOTION_DOT": 2.483e-05, "MEAN_MOTION_DDOT": 0}, "tle": {"line1": "1 30334U 99025AAV 25343.28067815  .00002483  00000+0  18043-2 0  9996", "line2": "2 30334  99.0213  82.9509 0144655 351.4535  68.5785 13.92359656951736"}}, "geometry": {"type": "Point", "coordinates": [42.91752745648538, 76.28060988286501]}}, {"type": "Feature", "properties": {"norad_id": 30335, "name": "FENGYUN 1C DEB", "group": "fengyun-1c-debris", "lat": -15.970310277094628, "lon": 152.6534896725576, "alt_km": 839.7292111884963, "timestamp": "2025-12-09T20:37:09.562728+00:00", "meta": {"OBJECT_NAME": "FENGYUN 1C DEB", "OBJECT_ID": "1999-025AAW", "EPOCH": "2025-12-09T11:50:55.355136", "MEAN_MOTION": 14.0135977, "ECCENTRICITY": 0.01326284, "INCLINATION": 98.9051, "RA_OF_ASC_NODE": 334.8686, "ARG_OF_PERICENTER": 140.5569, "MEAN_ANOMALY": 11.6349, "EPHEMERIS_TYPE": 0, "CLASSIFICATION_TYPE": "U", "NORAD_CAT_ID": 30335, "ELEMENT_SET_NO": 999, "REV_AT_EPOCH": 96545, "BSTAR": 0.00017171502, "MEAN_MOTION_DOT": 2.37e-06, "MEAN_MOTION_DDOT": 0}, "tle": {"line1": "1 30335U 99025AAW 25343.49369624  .00000237  00000+0  17172-3 0  9991", "line2": "2 30335  98.9051 334.8686 0132628 140.5569  11.6349 14.01359770965458"}}, "geometry": {"type": "Point", "coordinates": [152.6534896725576, -15.970310277094628]}}, {"type": "Feature", "properties": {"norad_id": 30336, "name": "FENGYUN 1C DEB", "group": "fengyun-1c-debris", "lat": -33.29537306246338, "lon": 179.18822989543196, "alt_km": 863.9966561002875, "timestamp": "2025-12-09T20:37:09.562739+00:00", "meta": {"OBJECT_NAME": "FENGYUN 1C DEB", "OBJECT_ID": "1999-025AAX", "EPOCH": "2025-12-09T13:33:33.262848", "MEAN_MOTION": 14.19298779, "ECCENTRICITY": 0.00437178, "INCLINATION": 98.6008, "RA_OF_ASC_NODE": 4.6072, "ARG_OF_PERICENTER": 17.7729, "MEAN_ANOMALY": 133.7869, "EPHEMERIS_TYPE": 0, "CLASSIFICATION_TYPE": "U", "NORAD_CAT_ID": 30336, "ELEMENT_SET_NO": 999, "REV_AT_EPOCH": 97557, "BSTAR": 0.00056119913, "MEAN_MOTION_DOT": 1.146e-05, "MEAN_MOTION_DDOT": 0}, "tle": {"line1": "1 30336U 99025AAX 25343.56496832  .00001146  00000+0  56120-3 0  9998", "line2": "2 30336  98.6008   4.6072 0043717  17.7729 133.7869 14.19298779975579"}}, "geometry": {"type": "Point", "coordinates": [179.18822989543196, -33.29537306246338]}}, {"type": "Feature", "properties": {"norad_id": 30338, "name": "FENGYUN 1C DEB", "group": "fengyun-1c-debris", "lat": -51.86922438302442, "lon": 64.49269313163015, "alt_km": 785.2617622912339, "timestamp": "2025-12-09T20:37:09.562749+00:00", "meta": {"OBJECT_NAME": "FENGYUN 1C DEB", "OBJECT_ID": "1999-025AAZ", "EPOCH": "2025-12-09T11:01:27.350112", "MEAN_MOTION": 14.47457097, "ECCENTRICITY": 0.02720299, "INCLINATION": 98.4585, "RA_OF_ASC_NODE": 53.1647, "ARG_OF_PERICENTER": 203.8377, "MEAN_ANOMALY": 178.474, "EPHEMERIS_TYPE": 0, "CLASSIFICATION_TYPE": "U", "NORAD_CAT_ID": 30338, "ELEMENT_SET_NO": 999, "REV_AT_EPOCH": 98097, "BSTAR": 0.0017222079, "MEAN_MOTION_DOT": 0.00010045, "MEAN_MOTION_DDOT": 0}, "tle": {"line1": "1 30338U 99025AAZ 25343.45934433  .00010045  00000+0  17222-2 0  9999", "line2": "2 30338  98.4585  53.1647 0272029 203.8377 178.4740 14.47457097980978"}}, "geometry": {"type": "Point", "coordinates": [64.49269313163015, -51.86922438302442]}}, {"type": "Feature", "properties": {"norad_id": 30339, "name": "FENGYUN 1C DEB", "group": "fengyun-1c-debris", "lat": -79.83404473121314, "lon": -151.6288958809904, "alt_km": 787.0312755921395, "timestamp": "2025-12-09T20:37:09.562759+00:00", "meta": {"OBJECT_NAME": "FENGYUN 1C DEB", "OBJECT_ID": "1999-025ABA", "EPOCH": "2025-12-09T06:16:55.229376", "MEAN_MOTION": 14.38072926, "ECCENTRICITY": 0.0021075, "INCLINATION": 98.9736, "RA_OF_ASC_NODE": 89.5363, "ARG_OF_PERICENTER": 95.5568, "MEAN_ANOMALY": 318.6389, "EPHEMERIS_TYPE": 0, "CLASSIFICATION_TYPE": "U", "NORAD_CAT_ID": 30339, "ELEMENT_SET_NO": 999, "REV_AT_EPOCH": 97377, "BSTAR": 0.0035629, "MEAN_MOTION_DOT": 0.00010789, "MEAN_MOTION_DDOT": 0}, "tle": {"line1": "1 30339U 99025ABA 25343.26175034  .00010789  00000+0  35629-2 0  9999", "line2": "2 30339  98.9736  89.5363 0021075  95.5568 318.6389 14.38072926973772"}}, "geometry": {"type": "Point", "coordinates": [-151.6288958809904, -79.83404473121314]}}, {"type": "Feature", "properties": {"norad_id": 30340, "name": "FENGYUN 1C DEB", "group": "fengyun-1c-debris", "lat": 60.987427980851415, "lon": -122.78305036704475, "alt_km": 775.7306735160337, "timestamp": "2025-12-09T20:37:09.562769+00:00", "meta": {"OBJECT_NAME": "FENGYUN 1C DEB", "OBJECT_ID": "1999-025ABB", "EPOCH": "2025-12-09T03:13:39.416736", "MEAN_MOTION": 14.04594191, "ECCENTRICITY": 0.01460529, "INCLINATION": 99.0017, "RA_OF_ASC_NODE": 39.8905, "ARG_OF_PERICENTER": 144.8143, "MEAN_ANOMALY": 271.3097, "EPHEMERIS_TYPE": 0, "CLASSIFICATION_TYPE": "U", "NORAD_CAT_ID": 30340, "ELEMENT_SET_NO": 999, "REV_AT_EPOCH": 96730, "BSTAR": 1.4463654e-05, "MEAN_MOTION_DOT": -1.8e-07, "MEAN_MOTION_DDOT": 0}, "tle": {"line1": "1 30340U 99025ABB 25343.13448399 -.00000018  00000+0  14464-4 0  9995", "line2": "2 30340  99.0017  39.8905 0146052 144.8143 271.3097 14.04594191967307"}}, "geometry": {"type": "Point", "coordinates": [-122.78305036704475, 60.987427980851415]}}, {"type": "Feature", "properties": {"norad_id": 30341, "name": "FENGYUN 1C DEB", "group": "fengyun-1c-debris", "lat": 18.863192616609616, "lon": -131.4737961909521, "alt_km": 753.4252705168101, "timestamp": "2025-12-09T20:37:09.562779+00:00", "meta": {"OBJECT_NAME": "FENGYUN 1C DEB", "OBJECT_ID": "1999-025ABC", "EPOCH": "2025-12-09T04:28:59.985696", "MEAN_MOTION": 14.33999124, "ECCENTRICITY": 0.00502397, "INCLINATION": 99.2179, "RA_OF_ASC_NODE": 230.9906, "ARG_OF_PERICENTER": 67.1109, "MEAN_ANOMALY": 83.6145, "EPHEMERIS_TYPE": 0, "CLASSIFICATION_TYPE": "U", "NORAD_CAT_ID": 30341, "ELEMENT_SET_NO": 999, "REV_AT_EPOCH": 97030, "BSTAR": 0.0035079023, "MEAN_MOTION_DOT": 9.898e-05, "MEAN_MOTION_DDOT": 0}, "tle": {"line1": "1 30341U 99025ABC 25343.18680539  .00009898  00000+0  35079-2 0  9992", "line2": "2 30341  99.2179 230.9906 0050239  67.1109  83.6145 14.33999124970303"}}, "geometry": {"type": "Point", "coordinates": [-131.4737961909521, 18.863192616609616]}}, {"type": "Feature", "properties": {"norad_id": 30342, "name": "FENGYUN 1C DEB", "group": "fengyun-1c-debris", "lat": 26.98018628362658, "lon": 157.85908134557394, "alt_km": 987.266162759086, "timestamp": "2025-12-09T20:37:09.562790+00:00", "meta": {"OBJECT_NAME": "FENGYUN 1C DEB", "OBJECT_ID": "1999-025ABD", "EPOCH": "2025-12-09T12:06:09.457632", "MEAN_MOTION": 13.80036994, "ECCENTRICITY": 0.01682622, "INCLINATION": 100.1956, "RA_OF_ASC_NODE": 162.7335, "ARG_OF_PERICENTER": 130.9389, "MEAN_ANOMALY": 296.4032, "EPHEMERIS_TYPE": 0, "CLASSIFICATION_TYPE": "U", "NORAD_CAT_ID": 30342, "ELEMENT_SET_NO": 999, "REV_AT_EPOCH": 94844, "BSTAR": 0.0010784577, "MEAN_MOTION_DOT": 1.197e-05, "MEAN_MOTION_DDOT": 0}, "tle": {"line1": "1 30342U 99025ABD 25343.50427613  .00001197  00000+0  10785-2 0  9992", "line2": "2 30342 100.1956 162.7335 0168262 130.9389 296.4032 13.80036994948449"}}, "geometry": {"type": "Point", "coordinates": [157.85908134557394, 26.98018628362658]}}, {"type": "Feature", "properties": {"norad_id": 30344, "name": "FENGYUN 1C DEB", "group": "fengyun-1c-debris", "lat": 80.00640984507375, "lon": -52.4685608190256, "alt_km": 707.9553863628707, "timestamp": "2025-12-09T20:37:09.562800+00:00", "meta": {"OBJECT_NAME": "FENGYUN 1C DEB", "OBJECT_ID": "1999-025ABF", "EPOCH": "2025-12-09T03:54:59.634144", "MEAN_MOTION": 14.51641184, "ECCENTRICITY": 0.00082334, "INCLINATION": 98.8182, "RA_OF_ASC_NODE": 65.0433, "ARG_OF_PERICENTER": 130.4804, "MEAN_ANOMALY": 289.3943, "EPHEMERIS_TYPE": 0, "CLASSIFICATION_TYPE": "U", "NORAD_CAT_ID": 30344, "ELEMENT_SET_NO": 999, "REV_AT_EPOCH": 98025, "BSTAR": 0.0030026319, "MEAN_MOTION_DOT": 0.00012014, "MEAN_MOTION_DDOT": 0}, "tle": {"line1": "1 30344U 99025ABF 25343.16319021  .00012014  00000+0  30026-2 0  9999", "line2": "2 30344  98.8182  65.0433 0008233 130.4804 289.3943 14.51641184980256"}}, "geometry": {"type": "Point", "coordinates": [-52.4685608190256, 80.00640984507375]}}]}